NORAD_CAT_ID,OBJECT_NAME,OBJECT_TYPE,EPOCH,MEAN_MOTION,ECCENTRICITY,INCLINATION,RA_OF_ASC_NODE,ARG_OF_PERICENTER,MEAN_ANOMALY,BSTAR,MEAN_MOTION_DOT,MEAN_MOTION_DDOT,TLE_LINE0,TLE_LINE1,TLE_LINE2,SEMIMAJOR_AXIS,PERIOD,APOGEE,PERIGEE,DECAYED
50805.0,STARLINK-3333,PAYLOAD,2022-07-18 18:47:58,15.08840357,0.0001372,53.2181,9.2985,77.0728,283.0417,-1.8853e-05,-5.88e-06,0.0,0 STARLINK-3333,1 50805U 22001C   22199.78331409 -.00000588  00000-0 -18853-4 0  9993,2 50805  53.2181   9.2985 0001372  77.0728 283.0417 15.08840357 29778,6917.879,95.438,540.693,538.795,0.0
50805.0,STARLINK-3333,PAYLOAD,2022-07-18 23:34:07,15.08852267,0.0001366,53.2186,8.4065,75.9222,284.1922,-4.047e-05,-9.32e-06,0.0,0 STARLINK-3333,1 50805U 22001C   22199.98203033 -.00000932  00000-0 -40470-4 0  9999,2 50805  53.2186   8.4065 0001366  75.9222 284.1922 15.08852267 31074,6917.843000000003,95.437,540.653,538.763,0.0
50805.0,STARLINK-3333,PAYLOAD,2022-07-19 18:38:45,15.08842548,0.0001344,53.2186,4.8378,79.2774,280.8369,0.00013321,1.833e-05,0.0,0 STARLINK-3333,1 50805U 22001C   22200.77691511  .00001833  00000-0  13321-3 0  9994,2 50805  53.2186   4.8378 0001344  79.2774 280.8369 15.08842548 31198,6917.873000000001,95.437,540.6669999999998,538.808,0.0
50805.0,STARLINK-3333,PAYLOAD,2022-07-19 20:14:08,15.08843686,0.0001356,53.2181,4.5403,78.1452,281.9692,0.00016609,2.357e-05,0.0,0 STARLINK-3333,1 50805U 22001C   22200.84315445  .00002357  00000-0  16609-3 0  9995,2 50805  53.2181   4.5403 0001356  78.1452 281.9692 15.08843686 29937,6917.869000000002,95.437,540.672,538.7959999999998,0.0
50805.0,STARLINK-3333,PAYLOAD,2022-07-19 23:24:54,15.08847748,0.0001351,53.2181,3.9457,77.9789,282.1354,0.00022044,3.223e-05,0.0,0 STARLINK-3333,1 50805U 22001C   22200.97563252  .00003223  00000-0  22044-3 0  9993,2 50805  53.2181   3.9457 0001351  77.9789 282.1354 15.08847748 29957,6917.857,95.437,540.656,538.7869999999998,0.0
50805.0,STARLINK-3333,PAYLOAD,2022-07-20 20:04:55,15.08842857,0.0001376999999999,53.2188,0.0792,78.2394,281.8752,0.00017132,2.44e-05,0.0,0 STARLINK-3333,1 50805U 22001C   22201.83675568  .00002440  00000-0  17132-3 0  9995,2 50805  53.2188   0.0792 0001377  78.2394 281.8752 15.08842857 31359,6917.871999999999,95.437,540.689,538.784,0.0
50805.0,STARLINK-3333,PAYLOAD,2022-07-21 04:01:51,15.08842947,0.0001333,53.2183,358.5927,79.7284,280.3859,0.00010276,1.348e-05,0.0,0 STARLINK-3333,1 50805U 22001C   22202.16795570  .00001348  00000-0  10276-3 0  9996,2 50805  53.2183 358.5927 0001333  79.7284 280.3859 15.08842947 30138,6917.871,95.437,540.659,538.814,0.0
50805.0,STARLINK-3333,PAYLOAD,2022-07-21 16:44:57,15.08828797,0.0001409999999999,53.2193,356.2151,75.0524,285.0624,-5.807300000000001e-05,-1.212e-05,0.0,0 STARLINK-3333,1 50805U 22001C   22202.69788993 -.00001212  00000-0 -58073-4 0  9995,2 50805  53.2193 356.2151 0001410  75.0524 285.0624 15.08828797 31483,6917.915,95.438,540.755,538.804,0.0
50805.0,STARLINK-3333,PAYLOAD,2022-07-21 19:55:44,15.08827847,0.0001403,53.2194,355.6205,74.3729,285.7418,-7.369600000000001e-05,-1.46e-05,0.0,0 STARLINK-3333,1 50805U 22001C   22202.83037131 -.00001460  00000-0 -73696-4 0  9995,2 50805  53.2194 355.6205 0001403  74.3729 285.7418 15.08827847 30233,6917.918000000002,95.438,540.753,538.812,0.0
50805.0,STARLINK-3333,PAYLOAD,2022-07-22 03:52:39,15.08834746,0.0001447,53.2197,354.1342,71.7595,288.3554,-3.6478e-05,-8.68e-06,0.0,0 STARLINK-3333,1 50805U 22001C   22203.16156813 -.00000868  00000-0 -36478-4 0  9999,2 50805  53.2197 354.1342 0001447  71.7595 288.3554 15.08834746 30283,6917.896,95.438,540.762,538.76,0.0
50805.0,STARLINK-3333,PAYLOAD,2022-07-22 10:14:11,15.08840045,0.000188,53.2195,352.9449,66.2804,293.8385,-5.7534e-05,-1.204e-05,0.0,0 STARLINK-3333,1 50805U 22001C   22203.42652617 -.00001204  00000-0 -57534-4 0  9992,2 50805  53.2195 352.9449 0001880  66.2804 293.8385 15.08840045 31595,6917.88,95.438,541.0459999999998,538.445,0.0
50805.0,STARLINK-3333,PAYLOAD,2022-07-22 16:35:44,15.08811776,0.0001373,53.2196,351.7554,82.3416,277.7732,0.00041002,6.239e-05,0.0,0 STARLINK-3333,1 50805U 22001C   22203.69148806  .00006239  00000-0  41002-3 0  9994,2 50805  53.2196 351.7554 0001373  82.3416 277.7732 15.08811776 31636,6917.967,95.439,540.781,538.882,0.0
50805.0,STARLINK-3333,PAYLOAD,2022-07-23 13:15:44,15.08837411,0.0001439,53.2192,347.8897,73.0263,287.0887,0.00010051,1.312e-05,0.0,0 STARLINK-3333,1 50805U 22001C   22204.55260322  .00001312  00000-0  10051-3 0  9995,2 50805  53.2192 347.8897 0001439  73.0263 287.0887 15.08837411 30490,6917.888000000001,95.438,540.749,538.758,0.0
50805.0,STARLINK-3333,PAYLOAD,2022-07-23 19:37:17,15.08831493,0.000144,53.2192,346.7002,74.1439,285.9712,0.00016153,2.283e-05,0.0,0 STARLINK-3333,1 50805U 22001C   22204.81756612  .00002283  00000-0  16153-3 0  9993,2 50805  53.2192 346.7002 0001440  74.1439 285.9712 15.08831493 31809,6917.906,95.438,540.768,538.775,0.0
50805.0,STARLINK-3333,PAYLOAD,2022-07-24 13:06:31,15.088455800000002,0.0001368,53.2193,343.4289,74.507,285.6073,0.00014134,1.963e-05,0.0,0 STARLINK-3333,1 50805U 22001C   22205.54619798  .00001963  00000-0  14134-3 0  9998,2 50805  53.2193 343.4289 0001368  74.5070 285.6073 15.08845580 30645,6917.863,95.437,540.675,538.7819999999998,0.0
50805.0,STARLINK-3333,PAYLOAD,2022-07-24 17:52:41,15.08837171,0.0001394,53.2194,342.5366,71.8142,288.3002,4.444e-05,4.19e-06,0.0,0 STARLINK-3333,1 50805U 22001C   22205.74492619  .00000419  00000-0  44440-4 0  9990,2 50805  53.2194 342.5366 0001394  71.8142 288.3002 15.08837171 30673,6917.889,95.438,540.7180000000002,538.79,0.0
50805.0,STARLINK-3333,PAYLOAD,2022-07-25 11:21:56,15.08828152,0.0001372,53.2195,339.2658,71.2419,288.8722,-7.5766e-05,-1.493e-05,0.0,0 STARLINK-3333,1 50805U 22001C   22206.47357578 -.00001493  00000-0 -75766-4 0  9995,2 50805  53.2195 339.2658 0001372  71.2419 288.8722 15.08828152 30783,6917.917,95.438,540.731,538.832,0.0
50805.0,STARLINK-3333,PAYLOAD,2022-07-25 17:43:29,15.0883055,0.0001363,53.2194,338.0768,71.7471,288.367,-3.2155e-05,-7.99e-06,0.0,0 STARLINK-3333,1 50805U 22001C   22206.73853404 -.00000799  00000-0 -32155-4 0  9996,2 50805  53.2194 338.0768 0001363  71.7471 288.3670 15.08830550 30821,6917.909000000002,95.438,540.717,538.831,0.0
50805.0,STARLINK-3333,PAYLOAD,2022-07-26 12:48:06,15.088428099999998,0.0001517,53.2198,334.5096,76.2544,283.8617,-3.9852e-05,-9.22e-06,0.0,0 STARLINK-3333,1 50805U 22001C   22207.53340907 -.00000922  00000-0 -39852-4 0  9993,2 50805  53.2198 334.5096 0001517  76.2544 283.8617 15.08842810 30948,6917.871999999999,95.437,540.786,538.687,0.0
50805.0,STARLINK-3333,PAYLOAD,2022-07-26 17:34:15,15.08860681,0.0001291,53.2195,333.6173,64.4941,295.6185,-0.00026092,-4.44e-05,0.0,0 STARLINK-3333,1 50805U 22001C   22207.73212383 -.00004440  00000-0 -26092-3 0  9991,2 50805  53.2195 333.6173 0001291  64.4941 295.6185 15.08860681 30970,6917.816999999999,95.436,540.575,538.789,0.0
50805.0,STARLINK-3333,PAYLOAD,2022-07-27 01:31:11,15.08838398,0.0001389,53.2193,332.1303,72.8236,287.2909,7.8273e-05,9.58e-06,0.0,0 STARLINK-3333,1 50805U 22001C   22208.06332877  .00000958  00000-0  78273-4 0  9996,2 50805  53.2193 332.1303 0001389  72.8236 287.2909 15.08838398 32293,6917.885,95.438,540.711,538.789,0.0
50805.0,STARLINK-3333,PAYLOAD,2022-07-27 14:14:16,15.08840736,0.0001286999999999,53.2192,329.7512,72.0295,288.0838,0.00018301,2.626e-05,0.0,0 STARLINK-3333,1 50805U 22001C   22208.59324443  .00002626  00000-0  18301-3 0  9993,2 50805  53.2192 329.7512 0001287  72.0295 288.0838 15.08840736 31108,6917.878000000002,95.438,540.633,538.8530000000002,0.0
50805.0,STARLINK-3333,PAYLOAD,2022-07-27 15:49:39,15.0884329,0.0001276,53.2192,329.4537,71.8012,288.3119,0.00015855,2.237e-05,0.0,0 STARLINK-3333,1 50805U 22001C   22208.65948361  .00002237  00000-0  15855-3 0  9990,2 50805  53.2192 329.4537 0001276  71.8012 288.3119 15.08843290 31118,6917.87,95.437,540.618,538.8530000000002,0.0
50805.0,STARLINK-3333,PAYLOAD,2022-07-28 07:43:31,15.08838446,0.0001267,53.2188,326.4801,71.0915,289.0214,5.656e-05,6.12e-06,0.0,0 STARLINK-3333,1 50805U 22001C   22209.32189056  .00000612  00000-0  56560-4 0  9997,2 50805  53.2188 326.4801 0001267  71.0915 289.0214 15.08838446 31210,6917.885,95.438,540.627,538.874,0.0
50805.0,STARLINK-3333,PAYLOAD,2022-07-28 14:05:03,15.08838867,0.0001274999999999,53.2188,325.2907,71.0276,289.0855,5.373e-05,5.67e-06,0.0,0 STARLINK-3333,1 50805U 22001C   22209.58685029  .00000567  00000-0  53730-4 0  9991,2 50805  53.2188 325.2907 0001275  71.0276 289.0855 15.08838867 32526,6917.884,95.438,540.631,538.867,0.0
50805.0,STARLINK-3333,PAYLOAD,2022-07-29 07:34:17,15.08845215,0.0001501999999999,53.2192,322.0187,74.4001,285.7157,3.5279e-05,2.74e-06,0.0,0 STARLINK-3333,1 50805U 22001C   22210.31548547  .00000274  00000-0  35279-4 0  9990,2 50805  53.2192 322.0187 0001502  74.4001 285.7157 15.08845215 31366,6917.864000000001,95.437,540.769,538.69,0.0
50805.0,STARLINK-3333,PAYLOAD,2022-07-29 18:42:00,15.08838282,0.00013,53.2193,319.9379,72.5513,287.5621,-8.0486e-05,-1.569e-05,0.0,0 STARLINK-3333,1 50805U 22001C   22210.77917229 -.00001569  00000-0 -80486-4 0  9997,2 50805  53.2193 319.9379 0001300  72.5513 287.5621 15.08838282 31438,6917.886,95.438,540.65,538.851,0.0
50805.0,STARLINK-3333,PAYLOAD,2022-07-30 13:46:38,15.08836829,0.0001234,53.2185,316.3708,66.0839,294.0283,1.1567e-05,-1.04e-06,0.0,0 STARLINK-3333,1 50805U 22001C   22211.57405135 -.00000104  00000-0  11567-4 0  9991,2 50805  53.2185 316.3708 0001234  66.0839 294.0283 15.08836829 31556,6917.89,95.438,540.609,538.901,0.0
50805.0,STARLINK-3333,PAYLOAD,2022-07-30 18:32:47,15.08840438,0.0001252,53.2187,315.4785,66.9653,293.1471,1.2691e-05,-8.6e-07,0.0,0 STARLINK-3333,1 50805U 22001C   22211.77276909 -.00000086  00000-0  12691-4 0  9996,2 50805  53.2187 315.4785 0001252  66.9653 293.1471 15.08840438 31589,6917.879,95.438,540.61,538.878,0.0
